SPACEMOBILE-006         
1 67232U 25309A   26135.19874392  .00000680  00000+0  48149-4 0  9992
2 67232  52.9960 122.7050 0011844  36.2937 323.8857 15.18348862 21586
